[
 {
  "city": "Berlin",
  "court_name": "Charlottenburg",
  "docstatus": 0,
  "doctype": "Gericht",
  "fax_number": "(030) 90177-447",
  "judges": [],
  "modified": "2023-08-30 18:51:49.138271",
  "name": "Amtsgericht Charlottenburg",
  "street": "Amtsgerichtsplatz 1",
  "type": "Amtsgericht",
  "zipcode": "14057"
 },
 {
  "city": "Berlin",
  "court_name": "K\u00f6penick",
  "docstatus": 0,
  "doctype": "Gericht",
  "fax_number": "(030) 90247-200",
  "judges": [],
  "modified": "2023-08-30 18:54:03.578877",
  "name": "Amtsgericht K\u00f6penick",
  "street": "Mandrellaplatz 6",
  "type": "Amtsgericht",
  "zipcode": "12555"
 },
 {
  "city": "Berlin",
  "court_name": "Lichtenberg",
  "docstatus": 0,
  "doctype": "Gericht",
  "fax_number": "(030) 90253 \u2013 300",
  "judges": [],
  "modified": "2023-08-30 18:54:33.591798",
  "name": "Amtsgericht Lichtenberg",
  "street": "Roedeliusplatz 1",
  "type": "Amtsgericht",
  "zipcode": "10365"
 },
 {
  "city": "Berlin",
  "court_name": "Mitte",
  "docstatus": 0,
  "doctype": "Gericht",
  "fax_number": "(030) 9023 \u2013 2223",
  "judges": [],
  "modified": "2023-08-30 18:50:43.260353",
  "name": "Amtsgericht Mitte",
  "street": "Littenstra\u00dfe 12-17",
  "type": "Amtsgericht",
  "zipcode": "10179"
 },
 {
  "city": "Berlin",
  "court_name": "Neuk\u00f6lln",
  "docstatus": 0,
  "doctype": "Gericht",
  "fax_number": "(030) 90191 \u2013 122",
  "judges": [],
  "modified": "2023-08-30 18:54:52.486147",
  "name": "Amtsgericht Neuk\u00f6lln",
  "street": "Karl-Marx-Stra\u00dfe 78",
  "type": "Amtsgericht",
  "zipcode": "12043"
 },
 {
  "city": "Berlin",
  "court_name": "Pankow",
  "docstatus": 0,
  "doctype": "Gericht",
  "fax_number": "(030) 90245 \u2013 400",
  "judges": [],
  "modified": "2023-08-30 18:56:22.443373",
  "name": "Amtsgericht Pankow/Wei\u00dfensee",
  "street": "Parkstra\u00dfe 71",
  "type": "Amtsgericht",
  "zipcode": "13086"
 },
 {
  "city": "Berlin",
  "court_name": "Sch\u00f6neberg",
  "docstatus": 0,
  "doctype": "Gericht",
  "fax_number": "030 / 90159 429",
  "judges": [],
  "modified": "2023-08-30 18:56:56.735363",
  "name": "Amtsgericht Sch\u00f6neberg",
  "street": "Grunewaldstra\u00dfe 66-67",
  "type": "Amtsgericht",
  "zipcode": "10823"
 },
 {
  "city": "Berlin",
  "court_name": "Spandau",
  "docstatus": 0,
  "doctype": "Gericht",
  "fax_number": "(030) 90157 \u2013 444",
  "judges": [],
  "modified": "2023-08-30 18:59:04.495751",
  "name": "Amtsgericht Spandau",
  "street": "Altst\u00e4dter Ring 7",
  "type": "Amtsgericht",
  "zipcode": "13597"
 },
 {
  "city": "Berlin",
  "court_name": "Kreuzberg",
  "docstatus": 0,
  "doctype": "Gericht",
  "fax_number": "(030) 90 175 \u2013 211",
  "judges": [],
  "modified": "2023-08-30 18:59:52.523670",
  "name": "Amtsgericht Tempelhof-Kreuzberg",
  "street": "M\u00f6ckernstra\u00dfe 130",
  "type": "Amtsgericht",
  "zipcode": "10963"
 },
 {
  "city": "Berlin",
  "court_name": "Wedding",
  "docstatus": 0,
  "doctype": "Gericht",
  "fax_number": "(030) 90156 \u2013 664",
  "judges": [],
  "modified": "2023-08-30 18:45:23.147471",
  "name": "Amtsgericht Wedding",
  "street": "Brunnenplatz 1",
  "type": "Amtsgericht",
  "zipcode": "13357"
 }
]